[{"OBJECT_NAME":"STARLINK-6365","OBJECT_ID":"2023-094V","EPOCH":"2026-03-09T22:00:01.999584","MEAN_MOTION":15.13918024,"ECCENTRICITY":0.00019035,"INCLINATION":43.0014,"RA_OF_ASC_NODE":28.3567,"ARG_OF_PERICENTER":260.1363,"MEAN_ANOMALY":67.7948,"EPHEMERIS_TYPE":0,"CLASSIFICATION_TYPE":"U","NORAD_CAT_ID":57237,"ELEMENT_SET_NO":999,"REV_AT_EPOCH":577,"BSTAR":0.0045657994,"MEAN_MOTION_DOT":0.00084962,"MEAN_MOTION_DDOT":0},{"OBJECT_NAME":"CURIUM ONE","OBJECT_ID":"2024-128H","EPOCH":"2026-03-09T16:29:14.303904","MEAN_MOTION":15.10847276,"ECCENTRICITY":0.00508907,"INCLINATION":61.979,"RA_OF_ASC_NODE":197.7537,"ARG_OF_PERICENTER":110.7183,"MEAN_ANOMALY":249.9377,"EPHEMERIS_TYPE":0,"CLASSIFICATION_TYPE":"U","NORAD_CAT_ID":60242,"ELEMENT_SET_NO":999,"REV_AT_EPOCH":9141,"BSTAR":0.00074106619,"MEAN_MOTION_DOT":0.00012574,"MEAN_MOTION_DDOT":0}]
